{
    "links": {
        "self": "http://www.neowsapp.com/rest/v1/neo/3973547?api_key=iIulBulltgU6a56xZRHN4H3l9WmuAYTsLGpBGhQ2"
    },
    "id": "3973547",
    "neo_reference_id": "3973547",
    "name": "(2020 AH1)",
    "designation": "2020 AH1",
    "nasa_jpl_url": "http://ssd.jpl.nasa.gov/sbdb.cgi?sstr=3973547",
    "absolute_magnitude_h": 24.5,
    "estimated_diameter": {
        "kilometers": {
            "estimated_diameter_min": 0.0334622374,
            "estimated_diameter_max": 0.0748238376
        },
        "meters": {
            "estimated_diameter_min": 33.4622374455,
            "estimated_diameter_max": 74.8238376074
        },
        "miles": {
            "estimated_diameter_min": 0.0207924639,
            "estimated_diameter_max": 0.0464933628
        },
        "feet": {
            "estimated_diameter_min": 109.7842471007,
            "estimated_diameter_max": 245.4850393757
        }
    },
    "is_potentially_hazardous_asteroid": false,
    "close_approach_data": [
        {
            "close_approach_date": "2020-01-18",
            "close_approach_date_full": "2020-Jan-18 12:30",
            "epoch_date_close_approach": 1579350600000,
            "relative_velocity": {
                "kilometers_per_second": "8.0089363718",
                "kilometers_per_hour": "28832.1709385115",
                "miles_per_hour": "17915.189770099"
            },
            "miss_distance": {
                "astronomical": "0.0406329612",
                "lunar": "15.8062219068",
                "kilometers": "6078604.447312644",
                "miles": "3777069.6585127272"
            },
            "orbiting_body": "Earth"
        }
    ],
    "orbital_data": {
        "orbit_id": "5",
        "orbit_determination_date": "2020-04-14 06:59:38",
        "first_observation_date": "2019-12-29",
        "last_observation_date": "2020-01-19",
        "data_arc_in_days": 21,
        "observations_used": 44,
        "orbit_uncertainty": "7",
        "minimum_orbit_intersection": ".0143716",
        "jupiter_tisserand_invariant": "4.069",
        "epoch_osculation": "2459000.5",
        "eccentricity": ".430379226889157",
        "semi_major_axis": "1.713831867727377",
        "inclination": "4.531579647112875",
        "ascending_node_longitude": "298.1366603187087",
        "orbital_period": "819.5033776917423",
        "perihelion_distance": ".9762342334768682",
        "perihelion_argument": "207.9258786744326",
        "aphelion_distance": "2.451429501977885",
        "perihelion_time": "2458889.264443058124",
        "mean_anomaly": "48.86471683846813",
        "mean_motion": ".439290440771575",
        "equinox": "J2000",
        "orbit_class": {
            "orbit_class_type": "APO",
            "orbit_class_description": "Near-Earth asteroid orbits which cross the Earth’s orbit similar to that of 1862 Apollo",
            "orbit_class_range": "a (semi-major axis) > 1.0 AU; q (perihelion) < 1.017 AU"
        }
    },
    "is_sentry_object": false
}